STARLINK-1683           
1 46578U 20070AY  26111.54607502  .05048182  12433-4  33804-3 0  9995
2 46578  52.9930 211.0129 0010211 299.4118  60.5908 16.40478612307822
STARLINK-1775           
1 46681U 20073M   26112.53507506  .00682623  24292-3  90940-3 0  9994
2 46681  53.0339 347.5554 0007519 236.2238 123.8078 16.06034364304538
STARLINK-1799           
1 46699U 20073AF  26111.86930707  .00623701  18812-3  11038-2 0  9994
2 46699  53.0356 336.6003 0004967 262.0198  98.0268 16.01346711304632
STARLINK-1800           
1 46700U 20073AG  26112.50719578  .01642936  22068-2  13534-2 0  9992
2 46700  53.0269 345.4320 0007326 236.3763 123.6574 16.13824476304561
STARLINK-1832           
1 46780U 20074AT  26112.27471785  .00704624  24600-3  11570-2 0  9995
2 46780  53.0318  46.5189 0004062 153.6828 206.4409 16.02634417304359
STARLINK-1934           
1 46792U 20074BF  26112.22866719  .02069880  53608-2  12598-2 0  9998
2 46792  53.0301  44.1656 0003648 198.3613 161.7293 16.18874698304385
ASTROCAST-0103          
1 47487U 21006CC  26112.15560338  .00544354  11811-3  16736-2 0  9997
2 47487  97.2495 183.8285 0001437 210.8411 149.2779 15.91816469292388
STARLINK-1975           
1 47573U 21009AB  26112.28507584  .00533401  13994-3  89239-3 0  9998
2 47573  53.0413  87.7659 0004403  74.4907 285.6609 16.02313733288742
STARLINK-1669           
1 47624U 21012E   26112.49951944  .01914426  40139-2  11815-2 0  9990
2 47624  53.0172 128.5211 0004503 353.5250   6.5727 16.18344347288093
STARLINK-2238           
1 48584U 21041AH  26112.00002315  .01194151  75320-3  22137-2 0  9999
2 48584  53.0500 291.3255 0000881  56.7867  65.9407 16.00677563  5903
JILIN-1 GAOFEN 3D03     
1 49006U 21061D   26112.27558322  .06792770  24546-5  73526-3 0  9995
2 49006  97.2710 192.8582 0013043 262.5710  97.4106 16.37188792267493
XINGSHIDAI 10           
1 49007U 21061E   26112.22683476  .00728685  27044-3  10184-2 0  9992
2 49007  97.2806 192.0346 0006968 227.6514 132.4178 16.05893325267435
INSPIRESAT 1            
1 51657U 22013B   26112.06527555  .00636488  19403-3  10300-2 0  9990
2 51657  97.4342 163.5403 0005777 210.3242 149.7704 16.03455103233768
JILIN-1 GAOFEN 03D14    
1 51831U 22019H   26111.62901392  .08912270  25172-5  56557-3 0  9997
2 51831  97.3448 208.8638 0012686 268.1436  91.8411 16.40538195231320
JILIN-1 GAOFEN 03D11    
1 51835U 22019M   26112.26449990  .00727861  27179-3  99143-3 0  9990
2 51835  97.3606 209.1095 0006642 247.2325 112.8255 16.06315886231389
JILIN-1 GAOFEN 03D10    
1 51840U 22019S   26111.40644684  .00696546  23872-3  10725-2 0  9997
2 51840  97.3566 208.1043 0006247 236.2110 123.8576 16.04294178231266
