[{"OBJECT_NAME":"STARLINK-1683","OBJECT_ID":"2020-070AY","EPOCH":"2026-04-21T13:06:20.881728","MEAN_MOTION":16.40478612,"ECCENTRICITY":0.0010211,"INCLINATION":52.993,"RA_OF_ASC_NODE":211.0129,"ARG_OF_PERICENTER":299.4118,"MEAN_ANOMALY":60.5908,"EPHEMERIS_TYPE":0,"CLASSIFICATION_TYPE":"U","NORAD_CAT_ID":46578,"ELEMENT_SET_NO":999,"REV_AT_EPOCH":30782,"BSTAR":0.00033804,"MEAN_MOTION_DOT":0.05048182,"MEAN_MOTION_DDOT":1.2433e-5},{"OBJECT_NAME":"STARLINK-1775","OBJECT_ID":"2020-073M","EPOCH":"2026-04-22T12:50:30.485184","MEAN_MOTION":16.06034364,"ECCENTRICITY":0.0007519,"INCLINATION":53.0339,"RA_OF_ASC_NODE":347.5554,"ARG_OF_PERICENTER":236.2238,"MEAN_ANOMALY":123.8078,"EPHEMERIS_TYPE":0,"CLASSIFICATION_TYPE":"U","NORAD_CAT_ID":46681,"ELEMENT_SET_NO":999,"REV_AT_EPOCH":30453,"BSTAR":0.0009094,"MEAN_MOTION_DOT":0.00682623,"MEAN_MOTION_DDOT":0.00024292},{"OBJECT_NAME":"STARLINK-1799","OBJECT_ID":"2020-073AF","EPOCH":"2026-04-21T20:51:48.130848","MEAN_MOTION":16.01346711,"ECCENTRICITY":0.0004967,"INCLINATION":53.0356,"RA_OF_ASC_NODE":336.6003,"ARG_OF_PERICENTER":262.0198,"MEAN_ANOMALY":98.0268,"EPHEMERIS_TYPE":0,"CLASSIFICATION_TYPE":"U","NORAD_CAT_ID":46699,"ELEMENT_SET_NO":999,"REV_AT_EPOCH":30463,"BSTAR":0.0011038,"MEAN_MOTION_DOT":0.00623701,"MEAN_MOTION_DDOT":0.00018812},{"OBJECT_NAME":"STARLINK-1800","OBJECT_ID":"2020-073AG","EPOCH":"2026-04-22T12:10:21.715392","MEAN_MOTION":16.13824476,"ECCENTRICITY":0.0007326,"INCLINATION":53.0269,"RA_OF_ASC_NODE":345.432,"ARG_OF_PERICENTER":236.3763,"MEAN_ANOMALY":123.6574,"EPHEMERIS_TYPE":0,"CLASSIFICATION_TYPE":"U","NORAD_CAT_ID":46700,"ELEMENT_SET_NO":999,"REV_AT_EPOCH":30456,"BSTAR":0.0013534,"MEAN_MOTION_DOT":0.01642936,"MEAN_MOTION_DDOT":0.0022068},{"OBJECT_NAME":"STARLINK-1832","OBJECT_ID":"2020-074AT","EPOCH":"2026-04-22T06:35:35.622240","MEAN_MOTION":16.02634417,"ECCENTRICITY":0.00040623,"INCLINATION":53.0318,"RA_OF_ASC_NODE":46.5189,"ARG_OF_PERICENTER":153.6828,"MEAN_ANOMALY":206.4409,"EPHEMERIS_TYPE":0,"CLASSIFICATION_TYPE":"U","NORAD_CAT_ID":46780,"ELEMENT_SET_NO":999,"REV_AT_EPOCH":30435,"BSTAR":0.0011569665,"MEAN_MOTION_DOT":0.00704624,"MEAN_MOTION_DDOT":0.00024600429},{"OBJECT_NAME":"STARLINK-1934","OBJECT_ID":"2020-074BF","EPOCH":"2026-04-22T05:29:16.845216","MEAN_MOTION":16.18874698,"ECCENTRICITY":0.00036486,"INCLINATION":53.0301,"RA_OF_ASC_NODE":44.1656,"ARG_OF_PERICENTER":198.3613,"MEAN_ANOMALY":161.7293,"EPHEMERIS_TYPE":0,"CLASSIFICATION_TYPE":"U","NORAD_CAT_ID":46792,"ELEMENT_SET_NO":999,"REV_AT_EPOCH":30438,"BSTAR":0.0012597946,"MEAN_MOTION_DOT":0.0206988,"MEAN_MOTION_DDOT":0.0053607664},{"OBJECT_NAME":"ASTROCAST-0103","OBJECT_ID":"2021-006CC","EPOCH":"2026-04-22T03:44:04.132032","MEAN_MOTION":15.91816469,"ECCENTRICITY":0.0001437,"INCLINATION":97.2495,"RA_OF_ASC_NODE":183.8285,"ARG_OF_PERICENTER":210.8411,"MEAN_ANOMALY":149.2779,"EPHEMERIS_TYPE":0,"CLASSIFICATION_TYPE":"U","NORAD_CAT_ID":47487,"ELEMENT_SET_NO":999,"REV_AT_EPOCH":29238,"BSTAR":0.0016736333,"MEAN_MOTION_DOT":0.00544354,"MEAN_MOTION_DDOT":0.0001181135},{"OBJECT_NAME":"STARLINK-1975","OBJECT_ID":"2021-009AB","EPOCH":"2026-04-22T06:50:30.552576","MEAN_MOTION":16.02313733,"ECCENTRICITY":0.00044032,"INCLINATION":53.0413,"RA_OF_ASC_NODE":87.7659,"ARG_OF_PERICENTER":74.4907,"MEAN_ANOMALY":285.6609,"EPHEMERIS_TYPE":0,"CLASSIFICATION_TYPE":"U","NORAD_CAT_ID":47573,"ELEMENT_SET_NO":999,"REV_AT_EPOCH":28874,"BSTAR":0.00089238983,"MEAN_MOTION_DOT":0.00533401,"MEAN_MOTION_DDOT":0.00013994053},{"OBJECT_NAME":"STARLINK-1669","OBJECT_ID":"2021-012E","EPOCH":"2026-04-22T11:59:18.479616","MEAN_MOTION":16.18344347,"ECCENTRICITY":0.0004503,"INCLINATION":53.0172,"RA_OF_ASC_NODE":128.5211,"ARG_OF_PERICENTER":353.525,"MEAN_ANOMALY":6.5727,"EPHEMERIS_TYPE":0,"CLASSIFICATION_TYPE":"U","NORAD_CAT_ID":47624,"ELEMENT_SET_NO":999,"REV_AT_EPOCH":28809,"BSTAR":0.0011815,"MEAN_MOTION_DOT":0.01914426,"MEAN_MOTION_DDOT":0.0040139},{"OBJECT_NAME":"STARLINK-2238","OBJECT_ID":"2021-041AH","EPOCH":"2026-04-22T00:00:02.000160","MEAN_MOTION":16.00677563,"ECCENTRICITY":8.811e-5,"INCLINATION":53.05,"RA_OF_ASC_NODE":291.3255,"ARG_OF_PERICENTER":56.7867,"MEAN_ANOMALY":65.9407,"EPHEMERIS_TYPE":0,"CLASSIFICATION_TYPE":"U","NORAD_CAT_ID":48584,"ELEMENT_SET_NO":999,"REV_AT_EPOCH":590,"BSTAR":0.0022137098,"MEAN_MOTION_DOT":0.01194151,"MEAN_MOTION_DDOT":0.00075320408},{"OBJECT_NAME":"JILIN-1 GAOFEN 3D03","OBJECT_ID":"2021-061D","EPOCH":"2026-04-22T06:36:50.390208","MEAN_MOTION":16.37188792,"ECCENTRICITY":0.0013043,"INCLINATION":97.271,"RA_OF_ASC_NODE":192.8582,"ARG_OF_PERICENTER":262.571,"MEAN_ANOMALY":97.4106,"EPHEMERIS_TYPE":0,"CLASSIFICATION_TYPE":"U","NORAD_CAT_ID":49006,"ELEMENT_SET_NO":999,"REV_AT_EPOCH":26749,"BSTAR":0.00073525713,"MEAN_MOTION_DOT":0.0679277,"MEAN_MOTION_DDOT":2.454572e-6},{"OBJECT_NAME":"XINGSHIDAI 10","OBJECT_ID":"2021-061E","EPOCH":"2026-04-22T05:26:38.523264","MEAN_MOTION":16.05893325,"ECCENTRICITY":0.0006968,"INCLINATION":97.2806,"RA_OF_ASC_NODE":192.0346,"ARG_OF_PERICENTER":227.6514,"MEAN_ANOMALY":132.4178,"EPHEMERIS_TYPE":0,"CLASSIFICATION_TYPE":"U","NORAD_CAT_ID":49007,"ELEMENT_SET_NO":999,"REV_AT_EPOCH":26743,"BSTAR":0.0010183562,"MEAN_MOTION_DOT":0.00728685,"MEAN_MOTION_DDOT":0.00027043585},{"OBJECT_NAME":"INSPIRESAT 1","OBJECT_ID":"2022-013B","EPOCH":"2026-04-22T01:33:59.807520","MEAN_MOTION":16.03455103,"ECCENTRICITY":0.00057775,"INCLINATION":97.4342,"RA_OF_ASC_NODE":163.5403,"ARG_OF_PERICENTER":210.3242,"MEAN_ANOMALY":149.7704,"EPHEMERIS_TYPE":0,"CLASSIFICATION_TYPE":"U","NORAD_CAT_ID":51657,"ELEMENT_SET_NO":999,"REV_AT_EPOCH":23376,"BSTAR":0.0010299746,"MEAN_MOTION_DOT":0.00636488,"MEAN_MOTION_DDOT":0.00019403456},{"OBJECT_NAME":"JILIN-1 GAOFEN 03D14","OBJECT_ID":"2022-019H","EPOCH":"2026-04-21T15:05:46.802688","MEAN_MOTION":16.40538195,"ECCENTRICITY":0.00126864,"INCLINATION":97.3448,"RA_OF_ASC_NODE":208.8638,"ARG_OF_PERICENTER":268.1436,"MEAN_ANOMALY":91.8411,"EPHEMERIS_TYPE":0,"CLASSIFICATION_TYPE":"U","NORAD_CAT_ID":51831,"ELEMENT_SET_NO":999,"REV_AT_EPOCH":23132,"BSTAR":0.00056557253,"MEAN_MOTION_DOT":0.0891227,"MEAN_MOTION_DDOT":2.517157e-6},{"OBJECT_NAME":"JILIN-1 GAOFEN 03D11","OBJECT_ID":"2022-019M","EPOCH":"2026-04-22T06:20:52.791360","MEAN_MOTION":16.06315886,"ECCENTRICITY":0.00066426,"INCLINATION":97.3606,"RA_OF_ASC_NODE":209.1095,"ARG_OF_PERICENTER":247.2325,"MEAN_ANOMALY":112.8255,"EPHEMERIS_TYPE":0,"CLASSIFICATION_TYPE":"U","NORAD_CAT_ID":51835,"ELEMENT_SET_NO":999,"REV_AT_EPOCH":23138,"BSTAR":0.00099143096,"MEAN_MOTION_DOT":0.00727861,"MEAN_MOTION_DDOT":0.0002717894},{"OBJECT_NAME":"JILIN-1 GAOFEN 03D10","OBJECT_ID":"2022-019S","EPOCH":"2026-04-21T09:45:17.006976","MEAN_MOTION":16.04294178,"ECCENTRICITY":0.00062475,"INCLINATION":97.3566,"RA_OF_ASC_NODE":208.1043,"ARG_OF_PERICENTER":236.211,"MEAN_ANOMALY":123.8576,"EPHEMERIS_TYPE":0,"CLASSIFICATION_TYPE":"U","NORAD_CAT_ID":51840,"ELEMENT_SET_NO":999,"REV_AT_EPOCH":23126,"BSTAR":0.0010725472,"MEAN_MOTION_DOT":0.00696546,"MEAN_MOTION_DDOT":0.00023872283}]
